1 45665U 20035J   22365.10663893  .00011973  00000-0  82112-3 0  9998
2 45665  53.0518 254.6465 0001358  72.6478 287.4659 15.06407714143197
1 45665U 20035J   22365.10663893  .00011973  00000-0  82112-3 0  9998
2 45665  53.0518 254.6465 0001358  72.6478 287.4659 15.06407714142792
1 45665U 20035J   22365.70375196  .00012495  00000-0  85564-3 0  9994
2 45665  53.0518 251.9657 0001361  71.9728 288.1409 15.06424533143283
1 45665U 20035J   23001.10182242  .00000111  00000-0  26356-4 0  9991
2 45665  53.0546 250.1793 0001597  68.8185 291.2975 15.06417652143343
1 45665U 20035J   23001.10182242  .00000111  00000-0  26356-4 0  9991
2 45665  53.0546 250.1793 0001597  68.8185 291.2975 15.06417652142948
1 45665U 20035J   23001.83164875  .00002484  00000-0  18563-3 0  9998
2 45665  53.0519 246.9031 0001434  72.0274 288.0872 15.06398452143455
1 45665U 20035J   23002.03068778  .00002927  00000-0  21527-3 0  9992
2 45665  53.0524 246.0088 0001330  73.9663 286.1472 15.06404376143088
1 45665U 20035J   23002.62781040  .00002761  00000-0  20419-3 0  9996
2 45665  53.0521 243.3290 0001345  77.7814 282.3325 15.06398718143577
1 45665U 20035J   23002.69415856  .00000916  00000-0  80361-4 0  9995
2 45665  53.0523 243.0309 0001349  76.3519 283.7620 15.06394652143585
1 45665U 20035J   23002.69415856  .00000916  00000-0  80361-4 0  9995
2 45665  53.0523 243.0309 0001349  76.3519 283.7620 15.06394652143181
1 45665U 20035J   23003.62301605  .00000346  00000-0  42121-4 0  9994
2 45665  53.0531 238.8612 0001546  79.9568 280.1595 15.06394678143721
1 45665U 20035J   23004.02110421  .00000699  00000-0  65820-4 0  9995
2 45665  53.0534 237.0736 0001438  78.5792 281.5358 15.06391376143382
1 45665U 20035J   23004.35283451  .00001003  00000-0  86198-4 0  9996
2 45665  53.0537 235.5843 0001461  77.5676 282.5477 15.06398911143838
1 45665U 20035J   23004.35283451  .00001003  00000-0  86198-4 0  9996
2 45665  53.0537 235.5843 0001461  77.5676 282.5477 15.06398911143434
1 45665U 20035J   23004.88360195  .00002578  00000-0  19184-3 0  9993
2 45665  53.0536 233.2014 0001528  80.0330 280.0832 15.06406034143915
1 45665U 20035J   23004.88360195  .00002578  00000-0  19184-3 0  9993
2 45665  53.0536 233.2014 0001528  80.0330 280.0832 15.06406034143511
1 45665U 20035J   23005.34802429  .00004522  00000-0  32215-3 0  9997
2 45665  53.0528 231.1169 0001610  78.8250 281.2919 15.06415811143981
1 45665U 20035J   23005.74610928  .00002747  00000-0  20322-3 0  9995
2 45665  53.0513 229.3291 0001641  81.2393 278.8782 15.06404529144042
1 45665U 20035J   23005.74610928  .00002747  00000-0  20322-3 0  9995
2 45665  53.0513 229.3291 0001641  81.2393 278.8782 15.06404529143647
1 45665U 20035J   23006.34323773 -.00002204  00000-0 -12915-3 0  9990
2 45665  53.0510 226.6496 0001521  77.5028 282.6131 15.06388701143735
1 45665U 20035J   23006.60862509 -.00002584  00000-0 -15465-3 0  9998
2 45665  53.0505 225.4577 0001662  78.2697 281.8478 15.06391096144177
1 45665U 20035J   23007.00670778 -.00002897  00000-0 -17572-3 0  9996
2 45665  53.0503 223.6705 0001647  79.1897 280.9278 15.06390472144235
1 45665U 20035J   23007.60382819 -.00000488  00000-0 -13841-4 0  9998
2 45665  53.0525 220.9889 0001814  85.1960 274.9236 15.06399693144327
1 45665U 20035J   23007.60382819 -.00000488  00000-0 -13841-4 0  9998
2 45665  53.0525 220.9889 0001814  85.1960 274.9236 15.06399693143922
1 45665U 20035J   23008.59903534  .00002312  00000-0  17412-3 0  9993
2 45665  53.0514 216.5217 0001582  85.2683 274.8486 15.06393274144477
1 45665U 20035J   23008.86442651  .00000769  00000-0  70523-4 0  9998
2 45665  53.0514 215.3303 0001529  84.1459 275.9704 15.06388003144514
1 45665U 20035J   23008.86442651  .00000769  00000-0  70523-4 0  9998
2 45665  53.0514 215.3303 0001529  84.1459 275.9704 15.06388003144110
1 45665U 20035J   23009.26250772  .00000417  00000-0  46909-4 0  9995
2 45665  53.0514 213.5434 0001503  83.2693 276.8467 15.06390847144572
1 45665U 20035J   23009.92597582  .00000870  00000-0  77308-4 0  9991
2 45665  53.0526 210.5647 0001454  83.4026 276.7129 15.06398136144679
1 45665U 20035J   23010.25770826  .00000861  00000-0  76693-4 0  9999
2 45665  53.0525 209.0755 0001439  82.9764 277.1388 15.06400983144325
1 45665U 20035J   23010.32405458  .00000833  00000-0  74824-4 0  9996
2 45665  53.0526 208.7776 0001437  82.9111 277.2041 15.06401453144734
1 45665U 20035J   23010.65578740  .00001771  00000-0  13773-3 0  9994
2 45665  53.0525 207.2879 0001380  81.4612 278.6533 15.06400390144783
1 45665U 20035J   23011.25291529  .00001362  00000-0  11032-3 0  9990
2 45665  53.0524 204.6077 0001436  82.8713 277.2440 15.06394954144478
1 45665U 20035J   23011.51830618  .00001129  00000-0  94705-4 0  9997
2 45665  53.0489 203.4163 0002065  84.2029 275.9195 15.06394753144914
1 45665U 20035J   23011.78370353 -.00000702  00000-0 -28247-4 0  9997
2 45665  53.0516 202.2248 0001538  84.5831 275.5333 15.06383194144551
1 45665U 20035J   23011.85005075 -.00001992  00000-0 -11494-3 0  9998
2 45665  53.0519 201.9271 0001484  86.1505 273.9653 15.06386382144966
1 45665U 20035J   23012.77891742  .00007825  00000-0  54426-3 0  9995
2 45665  53.0517 197.7557 0001285 104.4806 255.6325 15.06355343144708
1 45665U 20035J   23012.91160014  .00000266  00000-0  36795-4 0  9994
2 45665  53.0520 197.1592 0001581 100.2291 259.8876 15.06388957145127
1 45665U 20035J   23012.91160014  .00000266  00000-0  36795-4 0  9994
2 45665  53.0520 197.1592 0001581 100.2291 259.8876 15.06388957144722
1 45665U 20035J   23013.77410687  .00002768  00000-0  20471-3 0  9995
2 45665  53.0520 193.2889 0001442  89.1678 270.9476 15.06392863144853
1 45665U 20035J   23013.90679962  .00002783  00000-0  20567-3 0  9996
2 45665  53.0522 192.6930 0001420  88.7550 271.3602 15.06396180145274
1 45665U 20035J   23014.50391556  .00002969  00000-0  21807-3 0  9997
2 45665  53.0519 190.0126 0001424  88.8307 271.2845 15.06405284144963
1 45665U 20035J   23015.56546616 -.00001568  00000-0 -86407-4 0  9997
2 45665  53.0508 185.2472 0001405  86.4183 273.6967 15.06399453145520
1 45665U 20035J   23015.76450571  .00000300  00000-0  39032-4 0  9996
2 45665  53.0517 184.3540 0001212  95.4648 264.6480 15.06404139145559
1 45665U 20035J   23015.76450571  .00000300  00000-0  39032-4 0  9996
2 45665  53.0517 184.3540 0001212  95.4648 264.6480 15.06404139145155
1 45665U 20035J   23016.56066736 -.00001074  00000-0 -53188-4 0  9990
2 45665  53.0526 180.7795 0001194  88.5061 271.6065 15.06405102145673
1 45665U 20035J   23016.82604970 -.00000358  00000-0 -51668-5 0  9993
2 45665  53.0526 179.5879 0001200  91.1132 268.9994 15.06408660145716
1 45665U 20035J   23016.82604970 -.00000358  00000-0 -51668-5 0  9993
2 45665  53.0526 179.5879 0001200  91.1132 268.9994 15.06408660145312
1 45665U 20035J   23017.15777744 -.00007138  00000-0 -46040-3 0  9999
2 45665  53.0528 178.0989 0001057  95.0103 265.1007 15.06429579145362
1 45665U 20035J   23017.55587647  .00000193  00000-0  31864-4 0  9995
2 45665  53.0527 176.3117 0001121  86.8156 273.2961 15.06388953145823
1 45665U 20035J   23017.68857030  .00002147  00000-0  16304-3 0  9997
2 45665  53.0528 175.7157 0001040  89.9908 270.1200 15.06385199145843
1 45665U 20035J   23017.68857030  .00002147  00000-0  16304-3 0  9997
2 45665  53.0528 175.7157 0001040  89.9908 270.1200 15.06385199145449
1 45665U 20035J   23018.15299175  .00000584  00000-0  58061-4 0  9990
2 45665  53.0529 173.6309 0001136  87.5670 272.5449 15.06398101145518
1 45665U 20035J   23018.55106942  .00002115  00000-0  16082-3 0  9991
2 45665  53.0529 171.8435 0001114  87.1484 272.9633 15.06400237145976
1 45665U 20035J   23018.68376020  .00002670  00000-0  19804-3 0  9992
2 45665  53.0529 171.2478 0001090  88.7866 271.3248 15.06404018145999
1 45665U 20035J   23018.68376020  .00002670  00000-0  19804-3 0  9992
2 45665  53.0529 171.2478 0001090  88.7866 271.3248 15.06404018145595
1 45665U 20035J   23019.54628526  .00000328  00000-0  40909-4 0  9998
2 45665  53.0526 167.3764 0001127  98.7138 261.3978 15.06385831146120
1 45665U 20035J   23019.61263073  .00000444  00000-0  48698-4 0  9990
2 45665  53.0526 167.0782 0001129 105.5783 254.5330 15.06387608145738
1 45665U 20035J   23019.67897631  .00000308  00000-0  39555-4 0  9990
2 45665  53.0530 166.7798 0001110 101.7137 258.3977 15.06390934146148
1 45665U 20035J   23020.67416419  .00002166  00000-0  16423-3 0  9995
2 45665  53.0528 162.3139 0000989  86.9894 273.1208 15.06411530145892
1 45665U 20035J   23021.07225447  .00001517  00000-0  12068-3 0  9999
2 45665  53.0531 160.5229 0001192  94.0288 266.0837 15.06399502145950
1 45665U 20035J   23021.40399437  .00001028  00000-0  87944-4 0  9990
2 45665  53.0525 159.0381 0001213  83.3812 276.7315 15.06387454146002
1 45665U 20035J   23021.66937678  .00000854  00000-0  76207-4 0  9999
2 45665  53.0536 157.8479 0001437  90.8492 269.2662 15.06396500146041
1 45665U 20035J   23022.53189198  .00003978  00000-0  28585-3 0  9997
2 45665  53.0528 153.9742 0001028  88.5387 271.5719 15.06390599146170
1 45665U 20035J   23022.66457737  .00001037  00000-0  88469-4 0  9990
2 45665  53.0527 153.3778 0001022  93.8960 266.2146 15.06407200146197
1 45665U 20035J   23023.52709283  .00000362  00000-0  43172-4 0  9994
2 45665  53.0534 149.5055 0001350  93.6757 266.4386 15.06396715146327
1 45665U 20035J   23024.58864338  .00001139  00000-0  95333-4 0  9993
2 45665  53.0535 144.7401 0001083  93.1305 266.9808 15.06399857146488
1 45665U 20035J   23025.58384736  .00000964  00000-0  83572-4 0  9990
2 45665  53.0535 140.2720 0001042  94.5650 265.5458 15.06397747147030
1 45665U 20035J   23025.58384736  .00000964  00000-0  83572-4 0  9990
2 45665  53.0535 140.2720 0001042  94.5650 265.5458 15.06397747146635
1 45665U 20035J   23026.51270095  .00002031  00000-0  15522-3 0  9992
2 45665  53.0539 136.1023 0001066  98.4506 261.6604 15.06399881147179
1 45665U 20035J   23026.64538955  .00001430  00000-0  11484-3 0  9993
2 45665  53.0537 135.5050 0001213 111.2008 248.9111 15.06408147146799
1 45665U 20035J   23027.57425319  .00000933  00000-0  81533-4 0  9995
2 45665  53.0533 131.3369 0001002  90.3091 269.8012 15.06399317146933
1 45665U 20035J   23028.50311249  .00000284  00000-0  37927-4 0  9992
2 45665  53.0555 127.1700 0001130  91.8349 268.2769 15.06399292147477
1 45665U 20035J   23028.63580367  .00000429  00000-0  47663-4 0  9994
2 45665  53.0533 126.5709 0001110  92.5830 267.5286 15.06401024147491
1 45665U 20035J   23028.63580367  .00000429  00000-0  47663-4 0  9994
2 45665  53.0533 126.5709 0001110  92.5830 267.5286 15.06401024147097
1 45665U 20035J   23029.23293039 -.00000541  00000-0 -17420-4 0  9993
2 45665  53.0532 123.8937 0000821  83.9276 276.1806 15.06396898147181
1 45665U 20035J   23029.63101122 -.00000093  00000-0  12663-4 0  9993
2 45665  53.0537 122.1054 0001126  74.3369 285.7744 15.06397584147645
1 45665U 20035J   23030.42717324  .00000841  00000-0  75344-4 0  9994
2 45665  53.0539 118.5309 0001226  90.3629 269.7500 15.06396602147368
1 45665U 20035J   23030.49351887  .00000608  00000-0  59726-4 0  9996
2 45665  53.0539 118.2330 0001151  86.9482 273.1639 15.06399315147775
1 45665U 20035J   23031.22336131 -.00002064  00000-0 -11984-3 0  9996
2 45665  53.0538 114.9566 0001270  83.7645 276.3488 15.06369853147485
1 45665U 20035J   23031.48874939 -.00001731  00000-0 -97395-4 0  9998
2 45665  53.0541 113.7663 0001322  75.5475 284.5661 15.06374029147926
1 45665U 20035J   23031.62143670 -.00001091  00000-0 -54366-4 0  9995
2 45665  53.0537 113.1689 0001040  95.9665 264.1442 15.06382190147948
1 45665U 20035J   23031.62143670 -.00001091  00000-0 -54366-4 0  9995
2 45665  53.0537 113.1689 0001040  95.9665 264.1442 15.06382190147544
